[{"OBJECT_NAME":"STARLINK-30807","OBJECT_ID":"2023-167T","EPOCH":"2026-03-09T05:24:03.045600","MEAN_MOTION":15.27589562,"ECCENTRICITY":0.00011118,"INCLINATION":42.9957,"RA_OF_ASC_NODE":146.0518,"ARG_OF_PERICENTER":266.8176,"MEAN_ANOMALY":93.2548,"EPHEMERIS_TYPE":0,"CLASSIFICATION_TYPE":"U","NORAD_CAT_ID":58192,"ELEMENT_SET_NO":999,"REV_AT_EPOCH":13091,"BSTAR":0.0012233459,"MEAN_MOTION_DOT":0.00033565,"MEAN_MOTION_DDOT":0},{"OBJECT_NAME":"TSX-5","OBJECT_ID":"2000-030A","EPOCH":"2026-03-09T21:12:25.441056","MEAN_MOTION":14.57965705,"ECCENTRICITY":0.04447223,"INCLINATION":68.9141,"RA_OF_ASC_NODE":228.535,"ARG_OF_PERICENTER":180.8093,"MEAN_ANOMALY":179.2379,"EPHEMERIS_TYPE":0,"CLASSIFICATION_TYPE":"U","NORAD_CAT_ID":26374,"ELEMENT_SET_NO":999,"REV_AT_EPOCH":30806,"BSTAR":0.0016357838,"MEAN_MOTION_DOT":0.00031184,"MEAN_MOTION_DDOT":0}]
